ONEWEB-0522             
1 54140U 22138AD  26200.28879147  .00000080  00000+0  16810-3 0  9992
2 54140  87.9195 298.5679 0001980 105.0331 255.1021 13.19724030181042
ONEWEB-0523             
1 54141U 22138AE  26200.60473267 -.00000115  00000+0 -31467-3 0  9998
2 54141  87.9182 267.9813 0002154  76.5283 283.6090 13.20770781183580
ONEWEB-0524             
1 54142U 22138AF  26200.51887915 -.00000086  00000+0 -24365-3 0  9994
2 54142  87.9183 267.9952 0002838  87.7709 272.3749 13.20771390183574
ONEWEB-0525             
1 54143U 22138AG  26200.53519936  .00000122  00000+0  27285-3 0  9995
2 54143  87.9196 298.5260 0002295 108.7791 251.3591 13.19724369181092
ONEWEB-0526             
1 54144U 22138AH  26200.34092119  .00000080  00000+0  16762-3 0  9995
2 54144  87.9194 298.5652 0002157 102.6987 257.4387 13.19724286181046
ONEWEB-0529             
1 54145U 22138AJ  26200.26826634  .00000061  00000+0  12066-3 0  9996
2 54145  87.9185 298.5862 0002155 107.3415 252.7954 13.19726738181059
ONEWEB-0531             
1 54146U 22138AK  26200.42964680 -.00000101  00000+0 -28078-3 0  9996
2 54146  87.9186 268.0104 0002387  77.4556 282.6844 13.20770544183566
ONEWEB-0535             
1 54147U 22138AL  26200.30142119 -.00000152  00000+0 -41128-3 0  9996
2 54147  87.9194 298.5663 0001933  92.5044 267.6310 13.19724708181074
ONEWEB-0536             
1 54148U 22138AM  26200.18890948 -.00000164  00000+0 -43602-3 0  9995
2 54148  87.9170 268.0769 0002626  76.7913 283.3513 13.20771064183528
ONEWEB-0527             
1 54642U 22166A   26200.12052056  .00000074  00000+0  14654-3 0  9992
2 54642  87.9232 237.6411 0002107  97.0728 263.0645 13.21827773175753
ONEWEB-0528             
1 54643U 22166B   26200.49984927 -.00000039  00000+0 -12663-3 0  9995
2 54643  87.9231 237.5682 0002194 100.0798 260.0584 13.21825960175812
ONEWEB-0539             
1 54644U 22166C   26200.53769396  .00000050  00000+0  90727-4 0  9991
2 54644  87.9236 237.5346 0001851  96.4002 263.7343 13.21824226175817
ONEWEB-0540             
1 54645U 22166D   26200.46886742 -.00000076  00000+0 -21481-3 0  9999
2 54645  87.9230 237.5764 0001953  94.4633 265.6724 13.21824388175797
ONEWEB-0542             
1 54646U 22166E   26200.54779553 -.00000012  00000+0 -59679-4 0  9991
2 54646  87.9240 237.5318 0001759  96.3944 263.7390 13.21826124175815
ONEWEB-0545             
1 54647U 22166F   26200.13398951  .00000075  00000+0  15010-3 0  9993
2 54647  87.9233 237.6237 0001463  90.4094 269.7207 13.21826215175726
ONEWEB-0580             
1 54648U 22166G   26200.56292150 -.00000019  00000+0 -77188-4 0  9990
2 54648  87.9230 237.5375 0001728  88.9626 271.1706 13.21823714175826
ONEWEB-0582             
1 54649U 22166H   26200.15079021  .00000038  00000+0  61233-4 0  9999
2 54649  87.9231 237.6124 0001604  92.9396 267.1921 13.21824135175746
ONEWEB-0583             
1 54650U 22166J   26200.46537200 -.00000051  00000+0 -15546-3 0  9995
2 54650  87.9231 237.5731 0001929  94.7369 265.3985 13.21825735175793
ONEWEB-0584             
1 54651U 22166K   26200.48554838  .00000004  00000+0 -22797-4 0  9998
2 54651  87.9231 237.5539 0002095  95.4181 264.7192 13.21825353175783
ONEWEB-0585             
1 54652U 22166L   26200.50909253  .00000049  00000+0  86828-4 0  9990
2 54652  87.9231 237.5368 0002247  96.1888 263.9502 13.21823945175797
ONEWEB-0586             
1 54653U 22166M   26200.52255428  .00000028  00000+0  36861-4 0  9990
2 54653  87.9232 237.5600 0001875  97.3403 262.7944 13.21824248175794
ONEWEB-0587             
1 54654U 22166N   26200.15417767  .00000017  00000+0  84443-5 0  9994
2 54654  87.9240 237.6097 0002407  97.4728 262.6679 13.21826201175906
ONEWEB-0589             
1 54655U 22166P   26200.51920170  .00000005  00000+0 -18736-4 0  9991
2 54655  87.9230 237.5454 0001304  82.0398 278.0884 13.21825619175811
ONEWEB-0590             
1 54656U 22166Q   26200.46858096  .00000025  00000+0  28729-4 0  9997
2 54656  87.9240 237.5487 0002211  84.3754 275.7632 13.21826282175797
ONEWEB-0591             
1 54657U 22166R   26200.55618579 -.00000099  00000+0 -27179-3 0  9998
2 54657  87.9228 237.5430 0002023  92.3043 267.8323 13.21824240175839
ONEWEB-0592             
1 54658U 22166S   26200.48386671  .00000019  00000+0  15172-4 0  9997
2 54658  87.9241 237.5385 0002055  96.6955 263.4413 13.21824558175708
ONEWEB-0593             
1 54659U 22166T   26200.50573513  .00000056  00000+0  10302-3 0  9994
2 54659  87.9237 237.5440 0001917  97.9898 262.1454 13.21826465175814
ONEWEB-0594             
1 54660U 22166U   26200.14743924 -.00000007  00000+0 -48962-4 0  9993
2 54660  87.9231 237.6310 0002239  98.5481 261.5906 13.21824915175789
ONEWEB-0595             
1 54661U 22166V   26200.35098574  .00000036  00000+0  54916-4 0  9997
2 54661  87.9240 237.5736 0002298  94.5677 265.5719 13.21826125175780
ONEWEB-0596             
1 54662U 22166W   26200.55283084  .00000515  00000+0  12150-2 0  9996
2 54662  87.9232 237.5427 0002105  96.3550 263.7824 13.21821341175812
